SENTINEL-6              
1 46984U 20086A   24070.38749704 -.00000057  00000+0  17335-4 0  9997
2 46984  66.0410  56.4749 0007877 271.1049  88.9064 12.80929103154176
